[{"OBJECT_NAME":"NUSAT-35 (WILLIAMINA)","OBJECT_ID":"2023-001AR","EPOCH":"2026-03-09T22:28:40.425600","MEAN_MOTION":15.3245616,"ECCENTRICITY":0.00136635,"INCLINATION":97.1993,"RA_OF_ASC_NODE":124.278,"ARG_OF_PERICENTER":97.0313,"MEAN_ANOMALY":263.2484,"EPHEMERIS_TYPE":0,"CLASSIFICATION_TYPE":"U","NORAD_CAT_ID":55048,"ELEMENT_SET_NO":999,"REV_AT_EPOCH":17719,"BSTAR":0.00053479647,"MEAN_MOTION_DOT":0.0001675,"MEAN_MOTION_DDOT":0},{"OBJECT_NAME":"STARLINK-31142","OBJECT_ID":"2024-011Q","EPOCH":"2026-03-09T03:24:06.103584","MEAN_MOTION":15.30196835,"ECCENTRICITY":0.00010931,"INCLINATION":53.1618,"RA_OF_ASC_NODE":16.4087,"ARG_OF_PERICENTER":112.8196,"MEAN_ANOMALY":247.2921,"EPHEMERIS_TYPE":0,"CLASSIFICATION_TYPE":"U","NORAD_CAT_ID":58779,"ELEMENT_SET_NO":999,"REV_AT_EPOCH":12018,"BSTAR":2.3810538e-5,"MEAN_MOTION_DOT":3.46e-6,"MEAN_MOTION_DDOT":0}]
